     2.11           N: GPS NAV DATA                         RINEX VERSION / TYPE
teqc  2019Feb25                         20221121 12:25:04UTCPGM / RUN BY / DATE
OSX ker:10.11.6|Core i5|gcc 4.3 -m64|OSX ker:10.10+|=+      COMMENT
    4.6566D-09  1.4901D-08 -5.9605D-08 -1.1921D-07          ION ALPHA
    7.9872D+04  8.1920D+04 -6.5536D+04 -4.5875D+05          ION BETA
   -5.587935447693D-09-1.065814103640D-14   147456     1540 DELTA-UTC: A0,A1,T,W
                                                            END OF HEADER
 6 09  7 12  0  0  0.0 1.895786263049D-04 1.125499693444D-11 0.000000000000D+00
    5.600000000000D+01-2.125000000000D+01 5.054853412077D-09-2.338058169576D+00
   -9.741634130478D-07 5.972628132440D-03 1.117773354053D-05 5.153707382202D+03
    0.000000000000D+00 1.862645149231D-08-2.365418321808D+00 9.685754776001D-08
    9.338999738711D-01 1.471562500000D+02-1.317245152982D+00-8.082479524857D-09
    1.739358165535D-10 1.000000000000D+00 1.540000000000D+03 0.000000000000D+00
    2.000000000000D+00 0.000000000000D+00-4.656612873077D-09 5.600000000000D+01
   -7.182000000000D+03 4.000000000000D+00
25 09  7 12  0  0  0.0 5.040545947850D-04 1.739408617141D-11 0.000000000000D+00
    6.200000000000D+01 4.434375000000D+01 4.438756320589D-09-1.655821052416D+00
    2.626329660416D-06 1.129037712235D-02 4.777684807777D-06 5.153646411896D+03
    0.000000000000D+00-1.881271600723D-07 1.776391016902D+00 2.328306436539D-07
    9.699487198803D-01 2.953750000000D+02-1.208626211013D+00-8.193912737927D-09
    3.907305612105D-10 1.000000000000D+00 1.540000000000D+03 0.000000000000D+00
    2.800000000000D+00 0.000000000000D+00-7.450580596924D-09 6.200000000000D+01
   -7.182000000000D+03 4.000000000000D+00
21 09  7 12  0  0  0.0 3.290828317404D-06-2.160049916711D-12 0.000000000000D+00
    5.400000000000D+01 3.775000000000D+01 5.498800475683D-09-7.922257088664D-01
    1.903623342514D-06 1.548110065050D-02 5.235895514488D-06 5.153594818115D+03
    0.000000000000D+00 3.464519977570D-07-1.253652642430D+00 1.806765794754D-07
    9.334352837949D-01 2.630312500000D+02-2.581081086239D+00-8.684290306978D-09
    1.928651764659D-11 1.000000000000D+00 1.540000000000D+03 0.000000000000D+00
    2.000000000000D+00 0.000000000000D+00-1.210719347000D-08 5.400000000000D+01
   -7.182000000000D+03 4.000000000000D+00
16 09  7 12  0  0  0.0 3.368686884642D-05-3.637978807092D-12 0.000000000000D+00
    2.400000000000D+01-8.871875000000D+01 4.590905515356D-09-2.269367228597D+00
   -4.563480615616D-06 5.338217015378D-03 6.724148988724D-06 5.153581186295D+03
    0.000000000000D+00-1.285225152969D-07 2.940273126521D+00-1.490116119385D-08
    9.692034289503D-01 2.584687500000D+02-3.177101672066D-01-8.102123200238D-09
   -1.771502361613D-10 1.000000000000D+00 1.540000000000D+03 0.000000000000D+00
    2.000000000000D+00 0.000000000000D+00-9.778887033463D-09 2.400000000000D+01
   -7.182000000000D+03 4.000000000000D+00
 3 09  7 12  0  0  0.0 4.188288003206D-04 5.229594535194D-12 0.000000000000D+00
    9.400000000000D+01-4.246875000000D+01 5.282362888760D-09 1.544899105809D+00
   -2.088025212288D-06 1.205094612669D-02 1.151859760284D-05 5.153649959564D+03
    0.000000000000D+00-3.222376108170D-07-2.433376055560D+00 3.352761268616D-08
    9.264869217734D-01 1.436875000000D+02 9.126915267513D-01-8.409278851647D-09
    6.928860043404D-11 1.000000000000D+00 1.540000000000D+03 0.000000000000D+00
    2.800000000000D+00 0.000000000000D+00-4.190951585770D-09 9.400000000000D+01
   -7.182000000000D+03 4.000000000000D+00
19 09  7 12  0  0  0.0 1.939339563251D-05-1.364242052659D-12 0.000000000000D+00
    4.000000000000D+01-1.134375000000D+01 4.595548565901D-09 2.280555760656D+00
   -2.942979335785D-07 5.736390477978D-03 1.136399805546D-05 5.153634956360D+03
    0.000000000000D+00 5.774199962616D-08-2.244972213818D+00 1.955777406693D-07
    9.574183613235D-01 1.577500000000D+02-3.282294171699D-01-7.960688737497D-09
    1.500062483624D-10 1.000000000000D+00 1.540000000000D+03 0.000000000000D+00
    2.000000000000D+00 0.000000000000D+00-1.443549990654D-08 4.000000000000D+01
   -7.182000000000D+03 4.000000000000D+00
 7 09  7 12  0  0  0.0 1.541012898088D-05-6.821210263297D-13 0.000000000000D+00
    8.100000000000D+01 3.184375000000D+01 4.553046795532D-09 1.753051058642D-01
    1.750886440277D-06 2.820636727847D-03 4.012137651443D-06 5.153660377502D+03
    0.000000000000D+00 5.587935447693D-09 1.870845797311D+00-1.490116119385D-08
    9.677594951589D-01 3.045937500000D+02 2.877928842042D+00-8.278916278665D-09
    3.564434187277D-10 1.000000000000D+00 1.540000000000D+03 0.000000000000D+00
    2.000000000000D+00 0.000000000000D+00-1.071020960808D-08 8.100000000000D+01
   -7.182000000000D+03 4.000000000000D+00
 8 09  7 12  0  0  0.0-2.114418894053D-04-1.705302565824D-12 0.000000000000D+00
    7.200000000000D+01 2.140625000000D+01 4.095884895761D-09-5.508327974713D-01
    1.080334186554D-06 1.071452861652D-02 3.760680556297D-06 5.153635271072D+03
    0.000000000000D+00 1.229345798492D-07 1.932163489268D+00-1.005828380585D-07
    9.889861526830D-01 3.172812500000D+02 2.996727679405D+00-8.130695818974D-09
    3.621579424748D-10 1.000000000000D+00 1.540000000000D+03 0.000000000000D+00
    2.000000000000D+00 0.000000000000D+00-3.725290298462D-09 7.200000000000D+01
   -7.182000000000D+03 4.000000000000D+00
18 09  7 12  0  0  0.0-4.077702760696D-05 3.183231456205D-12 0.000000000000D+00
    2.500000000000D+01-2.956250000000D+01 4.818772149774D-09-2.073889516703D+00
   -1.529231667519D-06 1.066889264621D-02 7.333233952522D-06 5.153606224060D+03
    0.000000000000D+00 3.352761268616D-08-1.954357597924D-01-1.285225152969D-07
    9.419661442823D-01 2.286562500000D+02-2.407494945691D+00-8.072479108300D-09
   -3.853731951976D-10 1.000000000000D+00 1.540000000000D+03 0.000000000000D+00
    2.000000000000D+00 0.000000000000D+00-1.071020960808D-08 2.500000000000D+01
   -7.182000000000D+03 4.000000000000D+00
15 09  7 12  0  0  0.0-3.077029250562D-04-2.614797267597D-12 0.000000000000D+00
    3.000000000000D+00 5.418750000000D+01 4.311251009481D-09 2.549558781391D+00
    2.725049853325D-06 1.476133358665D-03 9.527429938316D-06 5.153637376785D+03
    0.000000000000D+00 1.490116119385D-08 8.080333930570D-01-2.607703208923D-08
    9.562743096463D-01 1.925937500000D+02-4.806433017285D-01-7.923901490874D-09
    5.285934466102D-11 1.000000000000D+00 1.540000000000D+03 0.000000000000D+00
    2.000000000000D+00 0.000000000000D+00-9.778887033463D-09 3.000000000000D+00
   -6.588000000000D+03 4.000000000000D+00
22 09  7 12  0  0  0.0 1.956573687494D-04-7.958078640513D-13 0.000000000000D+00
    1.700000000000D+02-2.746875000000D+01 4.894489589423D-09-3.100110721998D+00
   -1.404434442520D-06 5.163057590835D-03 7.402151823044D-06 5.153655410767D+03
    0.000000000000D+00 3.725290298462D-09-1.898462614131D-01 3.539025783539D-08
    9.396337276764D-01 2.252500000000D+02-1.896068627692D+00-8.145339286076D-09
   -4.593048461762D-10 1.000000000000D+00 1.540000000000D+03 0.000000000000D+00
    4.000000000000D+00 0.000000000000D+00-1.769512891769D-08 1.700000000000D+02
   -5.118000000000D+03 4.000000000000D+00
28 09  7 12  0  0  0.0-2.588378265500D-05-1.136868377216D-13 0.000000000000D+00
    7.200000000000D+01-9.031250000000D+01 4.504830501415D-09-2.858378442867D+00
   -4.779547452927D-06 1.494770054705D-02 6.355345249176D-06 5.153652875900D+03
    0.000000000000D+00 2.793967723846D-07 2.948397352836D+00-2.030283212662D-07
    9.674081402721D-01 2.581250000000D+02-2.022523146504D+00-7.924258648609D-09
   -1.096474243982D-10 1.000000000000D+00 1.540000000000D+03 0.000000000000D+00
    2.800000000000D+00 0.000000000000D+00-1.071020960808D-08 7.200000000000D+01
   -5.118000000000D+03 4.000000000000D+00
26 09  7 12  0  0  0.0 6.465287879109D-05 2.273736754432D-13 0.000000000000D+00
    8.000000000000D+01 5.534375000000D+01 3.489788220830D-09 2.066734883232D-02
    3.051012754440D-06 2.030198683497D-02 1.041404902935D-05 5.154909612656D+03
    0.000000000000D+00-1.434236764908D-07 8.792458737656D-01 3.520399332047D-07
    9.926125525142D-01 2.001875000000D+02 1.023608009359D+00-7.841755212009D-09
    1.628639267934D-10 1.000000000000D+00 1.540000000000D+03 0.000000000000D+00
    2.000000000000D+00 0.000000000000D+00-6.519258022308D-09 8.000000000000D+01
   -4.680000000000D+02 4.000000000000D+00
